[{"OBJECT_NAME":"DAMPE","OBJECT_ID":"2015-078A","EPOCH":"2026-03-09T23:55:00.527232","MEAN_MOTION":15.30502084,"ECCENTRICITY":0.00138005,"INCLINATION":97.4588,"RA_OF_ASC_NODE":73.9866,"ARG_OF_PERICENTER":70.6942,"MEAN_ANOMALY":289.579,"EPHEMERIS_TYPE":0,"CLASSIFICATION_TYPE":"U","NORAD_CAT_ID":41173,"ELEMENT_SET_NO":999,"REV_AT_EPOCH":56937,"BSTAR":9.1158173e-5,"MEAN_MOTION_DOT":2.617e-5,"MEAN_MOTION_DDOT":0},{"OBJECT_NAME":"STARLINK-34366","OBJECT_ID":"2025-120AB","EPOCH":"2026-03-09T13:02:30.254208","MEAN_MOTION":15.30201519,"ECCENTRICITY":0.0001247,"INCLINATION":53.1577,"RA_OF_ASC_NODE":117.3752,"ARG_OF_PERICENTER":67.9046,"MEAN_ANOMALY":292.2087,"EPHEMERIS_TYPE":0,"CLASSIFICATION_TYPE":"U","NORAD_CAT_ID":64281,"ELEMENT_SET_NO":999,"REV_AT_EPOCH":4384,"BSTAR":0.0011041,"MEAN_MOTION_DOT":0.00032487,"MEAN_MOTION_DDOT":0}]
